STARLINK-3536           
1 51888U 22022AN  26068.03756298  .00000038  00000+0  20456-4 0  9991
2 51888  53.2188   2.0467 0001230  97.5151 262.5981 15.08838759223152
DISKSAT B               
1 67220U 25305B   26068.81497770  .00012481  00000+0  82401-3 0  9990
2 67220  45.0018 250.2098 0003783 311.4052  48.6498 15.07484556 12311
